{"type": "FeatureCollection", "features": [ {"type": "Feature", "properties": {"norad_id": 29892, "name": "FENGYUN 1C DEB", "group": "fengyun-1c-debris", "lat": -46.00990415905151, "lon": -65.78064208577082, "alt_km": 811.4441155294198, "timestamp": "2025-12-02T21:34:01.543236+00:00", "meta": {"OBJECT_NAME": "FENGYUN 1C DEB", "OBJECT_ID": "1999-025GN", "EPOCH": "2025-12-02T09:00:08.771328", "MEAN_MOTION": 14.31864106, "ECCENTRICITY": 0.0190809, "INCLINATION": 99.1811, "RA_OF_ASC_NODE": 123.31, "ARG_OF_PERICENTER": 327.3968, "MEAN_ANOMALY": 84.3403, "EPHEMERIS_TYPE": 0, "CLASSIFICATION_TYPE": "U", "NORAD_CAT_ID": 29892, "ELEMENT_SET_NO": 999, "REV_AT_EPOCH": 96501, "BSTAR": 0.0031327, "MEAN_MOTION_DOT": 0.00010206, "MEAN_MOTION_DDOT": 0}, "tle": {"line1": "1 29892U 99025GN  25336.37510152  .00010206  00000+0  31327-2 0  9994", "line2": "2 29892  99.1811 123.3100 0190809 327.3968  84.3403 14.31864106965013"}}, "geometry": {"type": "Point", "coordinates": [-65.78064208577082, -46.00990415905151]}}, {"type": "Feature", "properties": {"norad_id": 29893, "name": "FENGYUN 1C DEB", "group": "fengyun-1c-debris", "lat": 50.56168266521592, "lon": 63.36269333248137, "alt_km": 1039.1059560797576, "timestamp": "2025-12-02T21:34:01.543247+00:00", "meta": {"OBJECT_NAME": "FENGYUN 1C DEB", "OBJECT_ID": "1999-025GP", "EPOCH": "2025-12-02T12:43:05.322144", "MEAN_MOTION": 13.79452368, "ECCENTRICITY": 0.0173304, "INCLINATION": 98.554, "RA_OF_ASC_NODE": 73.5728, "ARG_OF_PERICENTER": 180.9709, "MEAN_ANOMALY": 202.0053, "EPHEMERIS_TYPE": 0, "CLASSIFICATION_TYPE": "U", "NORAD_CAT_ID": 29893, "ELEMENT_SET_NO": 999, "REV_AT_EPOCH": 94999, "BSTAR": 0.00030287, "MEAN_MOTION_DOT": 3.11e-06, "MEAN_MOTION_DDOT": 0}, "tle": {"line1": "1 29893U 99025GP  25336.52992271  .00000311  00000+0  30287-3 0  9999", "line2": "2 29893  98.5540  73.5728 0173304 180.9709 202.0053 13.79452368949998"}}, "geometry": {"type": "Point", "coordinates": [63.36269333248137, 50.56168266521592]}}, {"type": "Feature", "properties": {"norad_id": 29894, "name": "FENGYUN 1C DEB", "group": "fengyun-1c-debris", "lat": 25.29462014014089, "lon": 26.63938794500549, "alt_km": 871.1950997202357, "timestamp": "2025-12-02T21:34:01.543257+00:00", "meta": {"OBJECT_NAME": "FENGYUN 1C DEB", "OBJECT_ID": "1999-025GQ", "EPOCH": "2025-12-02T02:27:36.926208", "MEAN_MOTION": 13.80953106, "ECCENTRICITY": 0.01689685, "INCLINATION": 99.487, "RA_OF_ASC_NODE": 30.3722, "ARG_OF_PERICENTER": 73.09, "MEAN_ANOMALY": 318.2934, "EPHEMERIS_TYPE": 0, "CLASSIFICATION_TYPE": "U", "NORAD_CAT_ID": 29894, "ELEMENT_SET_NO": 999, "REV_AT_EPOCH": 94930, "BSTAR": 0.00059343731, "MEAN_MOTION_DOT": 6.54e-06, "MEAN_MOTION_DDOT": 0}, "tle": {"line1": "1 29894U 99025GQ  25336.10251072  .00000654  00000+0  59344-3 0  9996", "line2": "2 29894  99.4870  30.3722 0168968  73.0900 318.2934 13.80953106949306"}}, "geometry": {"type": "Point", "coordinates": [26.63938794500549, 25.29462014014089]}}, {"type": "Feature", "properties": {"norad_id": 29895, "name": "FENGYUN 1C DEB", "group": "fengyun-1c-debris", "lat": -60.37326659054835, "lon": -113.51421553971757, "alt_km": 1005.1568163971733, "timestamp": "2025-12-02T21:34:01.543267+00:00", "meta": {"OBJECT_NAME": "FENGYUN 1C DEB", "OBJECT_ID": "1999-025GR", "EPOCH": "2025-12-02T06:52:48.293184", "MEAN_MOTION": 14.08087141, "ECCENTRICITY": 0.0299732, "INCLINATION": 99.8857, "RA_OF_ASC_NODE": 83.6715, "ARG_OF_PERICENTER": 12.3823, "MEAN_ANOMALY": 11.7751, "EPHEMERIS_TYPE": 0, "CLASSIFICATION_TYPE": "U", "NORAD_CAT_ID": 29895, "ELEMENT_SET_NO": 999, "REV_AT_EPOCH": 95377, "BSTAR": 0.0017541, "MEAN_MOTION_DOT": 4.46e-05, "MEAN_MOTION_DDOT": 0}, "tle": {"line1": "1 29895U 99025GR  25336.28667006  .00004460  00000+0  17541-2 0  9995", "line2": "2 29895  99.8857  83.6715 0299732  12.3823  11.7751 14.08087141953779"}}, "geometry": {"type": "Point", "coordinates": [-113.51421553971757, -60.37326659054835]}}, {"type": "Feature", "properties": {"norad_id": 29896, "name": "FENGYUN 1C DEB", "group": "fengyun-1c-debris", "lat": 23.931922558375618, "lon": -135.32613066163358, "alt_km": 1050.9527086029457, "timestamp": "2025-12-02T21:34:01.543277+00:00", "meta": {"OBJECT_NAME": "FENGYUN 1C DEB", "OBJECT_ID": "1999-025GS", "EPOCH": "2025-12-02T06:14:04.904736", "MEAN_MOTION": 13.65349703, "ECCENTRICITY": 0.0239322, "INCLINATION": 99.4223, "RA_OF_ASC_NODE": 228.2791, "ARG_OF_PERICENTER": 128.8841, "MEAN_ANOMALY": 359.7107, "EPHEMERIS_TYPE": 0, "CLASSIFICATION_TYPE": "U", "NORAD_CAT_ID": 29896, "ELEMENT_SET_NO": 999, "REV_AT_EPOCH": 93899, "BSTAR": 0.0006273, "MEAN_MOTION_DOT": 5.79e-06, "MEAN_MOTION_DDOT": 0}, "tle": {"line1": "1 29896U 99025GS  25336.25977899  .00000579  00000+0  62730-3 0  9995", "line2": "2 29896  99.4223 228.2791 0239322 128.8841 359.7107 13.65349703938990"}}, "geometry": {"type": "Point", "coordinates": [-135.32613066163358, 23.931922558375618]}}, {"type": "Feature", "properties": {"norad_id": 29897, "name": "FENGYUN 1C DEB", "group": "fengyun-1c-debris", "lat": -59.77955333047456, "lon": 7.246845208810202, "alt_km": 994.9468609210799, "timestamp": "2025-12-02T21:34:01.543287+00:00", "meta": {"OBJECT_NAME": "FENGYUN 1C DEB", "OBJECT_ID": "1999-025GT", "EPOCH": "2025-12-02T03:21:42.874848", "MEAN_MOTION": 13.57127892, "ECCENTRICITY": 0.02963642, "INCLINATION": 98.6286, "RA_OF_ASC_NODE": 201.69, "ARG_OF_PERICENTER": 166.5515, "MEAN_ANOMALY": 326.9884, "EPHEMERIS_TYPE": 0, "CLASSIFICATION_TYPE": "U", "NORAD_CAT_ID": 29897, "ELEMENT_SET_NO": 999, "REV_AT_EPOCH": 92796, "BSTAR": 0.0019206963, "MEAN_MOTION_DOT": 1.784e-05, "MEAN_MOTION_DDOT": 0}, "tle": {"line1": "1 29897U 99025GT  25336.14007957  .00001784  00000+0  19207-2 0  9992", "line2": "2 29897  98.6286 201.6900 0296364 166.5515 326.9884 13.57127892927961"}}, "geometry": {"type": "Point", "coordinates": [7.246845208810202, -59.77955333047456]}}, {"type": "Feature", "properties": {"norad_id": 29898, "name": "FENGYUN 1C DEB", "group": "fengyun-1c-debris", "lat": 3.532707977813118, "lon": 151.15257198555074, "alt_km": 752.8608040295103, "timestamp": "2025-12-02T21:34:01.543296+00:00", "meta": {"OBJECT_NAME": "FENGYUN 1C DEB", "OBJECT_ID": "1999-025GU", "EPOCH": "2025-12-02T12:34:20.563104", "MEAN_MOTION": 13.70208046, "ECCENTRICITY": 0.0427437, "INCLINATION": 98.222, "RA_OF_ASC_NODE": 330.3195, "ARG_OF_PERICENTER": 216.9086, "MEAN_ANOMALY": 274.7642, "EPHEMERIS_TYPE": 0, "CLASSIFICATION_TYPE": "U", "NORAD_CAT_ID": 29898, "ELEMENT_SET_NO": 999, "REV_AT_EPOCH": 93021, "BSTAR": 0.0025291, "MEAN_MOTION_DOT": 4.223e-05, "MEAN_MOTION_DDOT": 0}, "tle": {"line1": "1 29898U 99025GU  25336.52384911  .00004223  00000+0  25291-2 0  9994", "line2": "2 29898  98.2220 330.3195 0427437 216.9086 274.7642 13.70208046930212"}}, "geometry": {"type": "Point", "coordinates": [151.15257198555074, 3.532707977813118]}}, {"type": "Feature", "properties": {"norad_id": 29899, "name": "FENGYUN 1C DEB", "group": "fengyun-1c-debris", "lat": -56.70517164881468, "lon": 147.2714752936252, "alt_km": 1375.9127358515216, "timestamp": "2025-12-02T21:34:01.543307+00:00", "meta": {"OBJECT_NAME": "FENGYUN 1C DEB", "OBJECT_ID": "1999-025GV", "EPOCH": "2025-12-02T09:18:02.992032", "MEAN_MOTION": 13.37487819, "ECCENTRICITY": 0.0353651, "INCLINATION": 98.6612, "RA_OF_ASC_NODE": 133.4158, "ARG_OF_PERICENTER": 104.9635, "MEAN_ANOMALY": 259.0924, "EPHEMERIS_TYPE": 0, "CLASSIFICATION_TYPE": "U", "NORAD_CAT_ID": 29899, "ELEMENT_SET_NO": 999, "REV_AT_EPOCH": 91946, "BSTAR": 0.00023857, "MEAN_MOTION_DOT": 1.47e-06, "MEAN_MOTION_DDOT": 0}, "tle": {"line1": "1 29899U 99025GV  25336.38753463  .00000147  00000+0  23857-3 0  9999", "line2": "2 29899  98.6612 133.4158 0353651 104.9635 259.0924 13.37487819919468"}}, "geometry": {"type": "Point", "coordinates": [147.2714752936252, -56.70517164881468]}}, {"type": "Feature", "properties": {"norad_id": 29901, "name": "FENGYUN 1C DEB", "group": "fengyun-1c-debris", "lat": -75.76088535877618, "lon": -173.52111018572575, "alt_km": 889.1900969543412, "timestamp": "2025-12-02T21:34:01.543317+00:00", "meta": {"OBJECT_NAME": "FENGYUN 1C DEB", "OBJECT_ID": "1999-025GX", "EPOCH": "2025-12-02T11:24:18.563040", "MEAN_MOTION": 13.33244554, "ECCENTRICITY": 0.0379307, "INCLINATION": 98.7446, "RA_OF_ASC_NODE": 148.7799, "ARG_OF_PERICENTER": 310.9425, "MEAN_ANOMALY": 101.1909, "EPHEMERIS_TYPE": 0, "CLASSIFICATION_TYPE": "U", "NORAD_CAT_ID": 29901, "ELEMENT_SET_NO": 999, "REV_AT_EPOCH": 91782, "BSTAR": 0.00046721, "MEAN_MOTION_DOT": 3.06e-06, "MEAN_MOTION_DDOT": 0}, "tle": {"line1": "1 29901U 99025GX  25336.47521485  .00000306  00000+0  46721-3 0  9992", "line2": "2 29901  98.7446 148.7799 0379307 310.9425 101.1909 13.33244554917821"}}, "geometry": {"type": "Point", "coordinates": [-173.52111018572575, -75.76088535877618]}}, {"type": "Feature", "properties": {"norad_id": 29904, "name": "FENGYUN 1C DEB", "group": "fengyun-1c-debris", "lat": 18.45876507151864, "lon": -162.81058996195569, "alt_km": 891.5683556105887, "timestamp": "2025-12-02T21:34:01.543327+00:00", "meta": {"OBJECT_NAME": "FENGYUN 1C DEB", "OBJECT_ID": "1999-025HA", "EPOCH": "2025-12-02T09:11:05.723232", "MEAN_MOTION": 14.44414339, "ECCENTRICITY": 0.0208402, "INCLINATION": 99.0434, "RA_OF_ASC_NODE": 13.5932, "ARG_OF_PERICENTER": 349.5149, "MEAN_ANOMALY": 10.1726, "EPHEMERIS_TYPE": 0, "CLASSIFICATION_TYPE": "U", "NORAD_CAT_ID": 29904, "ELEMENT_SET_NO": 999, "REV_AT_EPOCH": 98914, "BSTAR": 0.00054103, "MEAN_MOTION_DOT": 2.372e-05, "MEAN_MOTION_DDOT": 0}, "tle": {"line1": "1 29904U 99025HA  25336.38270513  .00002372  00000+0  54103-3 0  9996", "line2": "2 29904  99.0434  13.5932 0208402 349.5149  10.1726 14.44414339989144"}}, "geometry": {"type": "Point", "coordinates": [-162.81058996195569, 18.45876507151864]}}]}